{"fetched_at":"2026-03-29T16:36:15Z","count":15609,"tles":[{"name":"STARLINK-35226","line1":"1 65492U 25198A   26087.69262466  .00027809  00000+0  94748-3 0  9995","line2":"2 65492  53.1585 182.4403 0001006  75.7406 284.3707 15.30201788 31531","category":"Starlink"}]}