{
  "norad_id": 65492,
  "name": "STARLINK-35226",
  "history": [
    {
      "epoch": "2026-03-28T16:37:22.770624Z",
      "apogee_km": 475.89917745992625,
      "perigee_km": 474.52028409769446,
      "latitude_deg": 4.952710041329745e-05,
      "longitude_deg": 106.98604143956142,
      "height_km": 475.9382206353049,
      "semi_major_axis_km": 6853.3467307788105,
      "eccentricity": 0.0001006,
      "inclination_deg": 53.1585,
      "raan_deg": 182.4403,
      "arg_perigee_deg": 75.7406,
      "mean_anomaly_deg": 284.3707,
      "mean_motion_rev_day": 15.30201788
    }
  ]
}